{"type": "FeatureCollection", "features": [ {"type": "Feature", "properties": {"norad_id": 51444, "name": "CSG-2", "group": "resource", "lat": -30.64039313389223, "lon": -14.128566459619632, "alt_km": 629.1792630325735, "timestamp": "2025-12-15T07:02:37.272322+00:00", "meta": {"OBJECT_NAME": "CSG-2", "OBJECT_ID": "2022-008A", "EPOCH": "2025-12-14T21:59:39.018912", "MEAN_MOTION": 14.82165966, "ECCENTRICITY": 0.0001469, "INCLINATION": 97.8808, "RA_OF_ASC_NODE": 170.2065, "ARG_OF_PERICENTER": 82.0603, "MEAN_ANOMALY": 278.0777, "EPHEMERIS_TYPE": 0, "CLASSIFICATION_TYPE": "U", "NORAD_CAT_ID": 51444, "ELEMENT_SET_NO": 999, "REV_AT_EPOCH": 20929, "BSTAR": 5.0769599e-05, "MEAN_MOTION_DOT": 3.52e-06, "MEAN_MOTION_DDOT": 0}, "tle": {"line1": "1 51444U 22008A   25348.91642383  .00000352  00000+0  50770-4 0  9990", "line2": "2 51444  97.8808 170.2065 0001469  82.0603 278.0777 14.82165966209298"}}, "geometry": {"type": "Point", "coordinates": [-14.128566459619632, -30.64039313389223]}}, {"type": "Feature", "properties": {"norad_id": 52912, "name": "GAOFEN-12 03", "group": "resource", "lat": 73.98422440395382, "lon": 85.30387878638192, "alt_km": 622.3906945715107, "timestamp": "2025-12-15T07:02:37.272333+00:00", "meta": {"OBJECT_NAME": "GAOFEN-12 03", "OBJECT_ID": "2022-069A", "EPOCH": "2025-12-14T22:27:37.827936", "MEAN_MOTION": 14.79619267, "ECCENTRICITY": 0.00021793, "INCLINATION": 97.8483, "RA_OF_ASC_NODE": 236.2342, "ARG_OF_PERICENTER": 59.26, "MEAN_ANOMALY": 300.8826, "EPHEMERIS_TYPE": 0, "CLASSIFICATION_TYPE": "U", "NORAD_CAT_ID": 52912, "ELEMENT_SET_NO": 999, "REV_AT_EPOCH": 18736, "BSTAR": 0.00029436241, "MEAN_MOTION_DOT": 2.156e-05, "MEAN_MOTION_DDOT": 0}, "tle": {"line1": "1 52912U 22069A   25348.93585449  .00002156  00000+0  29436-3 0  9997", "line2": "2 52912  97.8483 236.2342 0002179  59.2600 300.8826 14.79619267187367"}}, "geometry": {"type": "Point", "coordinates": [85.30387878638192, 73.98422440395382]}}, {"type": "Feature", "properties": {"norad_id": 54754, "name": "SWOT", "group": "resource", "lat": 67.6156747253292, "lon": -44.20144536029632, "alt_km": 886.2476334936273, "timestamp": "2025-12-15T07:02:37.272343+00:00", "meta": {"OBJECT_NAME": "SWOT", "OBJECT_ID": "2022-173A", "EPOCH": "2025-12-14T22:07:49.154016", "MEAN_MOTION": 14.00167221, "ECCENTRICITY": 3.516e-05, "INCLINATION": 77.6107, "RA_OF_ASC_NODE": 284.0437, "ARG_OF_PERICENTER": 105.6612, "MEAN_ANOMALY": 254.4579, "EPHEMERIS_TYPE": 0, "CLASSIFICATION_TYPE": "U", "NORAD_CAT_ID": 54754, "ELEMENT_SET_NO": 999, "REV_AT_EPOCH": 15336, "BSTAR": 6.9233889e-05, "MEAN_MOTION_DOT": 1e-06, "MEAN_MOTION_DDOT": 0}, "tle": {"line1": "1 54754U 22173A   25348.92209669  .00000100  00000+0  69234-4 0  9993", "line2": "2 54754  77.6107 284.0437 0000351 105.6612 254.4579 14.00167221153361"}}, "geometry": {"type": "Point", "coordinates": [-44.20144536029632, 67.6156747253292]}}, {"type": "Feature", "properties": {"norad_id": 57654, "name": "GAOFEN-12 04", "group": "resource", "lat": -80.95967319859858, "lon": -34.05146286245415, "alt_km": 638.4360208241651, "timestamp": "2025-12-15T07:02:37.272353+00:00", "meta": {"OBJECT_NAME": "GAOFEN-12 04", "OBJECT_ID": "2023-123A", "EPOCH": "2025-12-14T23:18:56.054304", "MEAN_MOTION": 14.7970627, "ECCENTRICITY": 0.00012793, "INCLINATION": 97.9122, "RA_OF_ASC_NODE": 264.6947, "ARG_OF_PERICENTER": 73.9961, "MEAN_ANOMALY": 286.1392, "EPHEMERIS_TYPE": 0, "CLASSIFICATION_TYPE": "U", "NORAD_CAT_ID": 57654, "ELEMENT_SET_NO": 999, "REV_AT_EPOCH": 12538, "BSTAR": 0.0002009703, "MEAN_MOTION_DOT": 1.458e-05, "MEAN_MOTION_DDOT": 0}, "tle": {"line1": "1 57654U 23123A   25348.97148211  .00001458  00000+0  20097-3 0  9991", "line2": "2 57654  97.9122 264.6947 0001279  73.9961 286.1392 14.79706270125384"}}, "geometry": {"type": "Point", "coordinates": [-34.05146286245415, -80.95967319859858]}}, {"type": "Feature", "properties": {"norad_id": 59065, "name": "PARS 1", "group": "resource", "lat": 25.824068787963917, "lon": 143.9181771072658, "alt_km": 442.188114859885, "timestamp": "2025-12-15T07:02:37.272363+00:00", "meta": {"OBJECT_NAME": "PARS 1", "OBJECT_ID": "2024-039Q", "EPOCH": "2025-12-14T22:35:14.770752", "MEAN_MOTION": 15.41030003, "ECCENTRICITY": 0.00124648, "INCLINATION": 97.4632, "RA_OF_ASC_NODE": 319.921, "ARG_OF_PERICENTER": 65.761, "MEAN_ANOMALY": 294.4938, "EPHEMERIS_TYPE": 0, "CLASSIFICATION_TYPE": "U", "NORAD_CAT_ID": 59065, "ELEMENT_SET_NO": 999, "REV_AT_EPOCH": 10022, "BSTAR": 0.00021893237, "MEAN_MOTION_DOT": 8.973e-05, "MEAN_MOTION_DDOT": 0}, "tle": {"line1": "1 59065U 24039Q   25348.94114318  .00008973  00000+0  21893-3 0  9998", "line2": "2 59065  97.4632 319.9210 0012464  65.7610 294.4938 15.41030003100226"}}, "geometry": {"type": "Point", "coordinates": [143.9181771072658, 25.824068787963917]}}, {"type": "Feature", "properties": {"norad_id": 59371, "name": "RESURS-P 4", "group": "resource", "lat": -33.7214484374047, "lon": 110.6939012931033, "alt_km": 476.6798464744825, "timestamp": "2025-12-15T07:02:37.272373+00:00", "meta": {"OBJECT_NAME": "RESURS-P 4", "OBJECT_ID": "2024-061A", "EPOCH": "2025-12-14T22:16:31.528416", "MEAN_MOTION": 15.32104571, "ECCENTRICITY": 0.00013545, "INCLINATION": 97.2541, "RA_OF_ASC_NODE": 295.2132, "ARG_OF_PERICENTER": 54.2198, "MEAN_ANOMALY": 305.917, "EPHEMERIS_TYPE": 0, "CLASSIFICATION_TYPE": "U", "NORAD_CAT_ID": 59371, "ELEMENT_SET_NO": 999, "REV_AT_EPOCH": 9554, "BSTAR": 0.00011604821, "MEAN_MOTION_DOT": 3.521e-05, "MEAN_MOTION_DDOT": 0}, "tle": {"line1": "1 59371U 24061A   25348.92814269  .00003521  00000+0  11605-3 0  9997", "line2": "2 59371  97.2541 295.2132 0001354  54.2198 305.9170 15.32104571 95548"}}, "geometry": {"type": "Point", "coordinates": [110.6939012931033, -33.7214484374047]}}, {"type": "Feature", "properties": {"norad_id": 59625, "name": "LEGION 1", "group": "resource", "lat": -63.275432891266135, "lon": 79.12372236290072, "alt_km": 521.0060821562402, "timestamp": "2025-12-15T07:02:37.272384+00:00", "meta": {"OBJECT_NAME": "LEGION 1", "OBJECT_ID": "2024-081A", "EPOCH": "2025-12-14T21:49:29.994816", "MEAN_MOTION": 15.16504004, "ECCENTRICITY": 0.00038771, "INCLINATION": 97.5214, "RA_OF_ASC_NODE": 63.5292, "ARG_OF_PERICENTER": 308.1782, "MEAN_ANOMALY": 51.9101, "EPHEMERIS_TYPE": 0, "CLASSIFICATION_TYPE": "U", "NORAD_CAT_ID": 59625, "ELEMENT_SET_NO": 999, "REV_AT_EPOCH": 8960, "BSTAR": 0.00020853711, "MEAN_MOTION_DOT": 3.996e-05, "MEAN_MOTION_DDOT": 0}, "tle": {"line1": "1 59625U 24081A   25348.90937494  .00003996  00000+0  20854-3 0  9997", "line2": "2 59625  97.5214  63.5292 0003877 308.1782  51.9101 15.16504004 89604"}}, "geometry": {"type": "Point", "coordinates": [79.12372236290072, -63.275432891266135]}}, {"type": "Feature", "properties": {"norad_id": 59626, "name": "LEGION 2", "group": "resource", "lat": 63.294149505523926, "lon": -100.77514816586225, "alt_km": 513.9997933300883, "timestamp": "2025-12-15T07:02:37.272394+00:00", "meta": {"OBJECT_NAME": "LEGION 2", "OBJECT_ID": "2024-081B", "EPOCH": "2025-12-14T22:37:02.228160", "MEAN_MOTION": 15.16518311, "ECCENTRICITY": 0.00056177, "INCLINATION": 97.5219, "RA_OF_ASC_NODE": 63.6493, "ARG_OF_PERICENTER": 284.326, "MEAN_ANOMALY": 75.7349, "EPHEMERIS_TYPE": 0, "CLASSIFICATION_TYPE": "U", "NORAD_CAT_ID": 59626, "ELEMENT_SET_NO": 999, "REV_AT_EPOCH": 8961, "BSTAR": 0.00020419283, "MEAN_MOTION_DOT": 3.913e-05, "MEAN_MOTION_DDOT": 0}, "tle": {"line1": "1 59626U 24081B   25348.94238690  .00003913  00000+0  20419-3 0  9990", "line2": "2 59626  97.5219  63.6493 0005617 284.3260  75.7349 15.16518311 89619"}}, "geometry": {"type": "Point", "coordinates": [-100.77514816586225, 63.294149505523926]}}, {"type": "Feature", "properties": {"norad_id": 60182, "name": "ALOS-4 (DAICHI-4)", "group": "resource", "lat": 26.390748374384362, "lon": -91.93424022794218, "alt_km": 629.5642360498596, "timestamp": "2025-12-15T07:02:37.272404+00:00", "meta": {"OBJECT_NAME": "ALOS-4 (DAICHI-4)", "OBJECT_ID": "2024-123A", "EPOCH": "2025-12-10T20:50:51.532800", "MEAN_MOTION": 14.79478132, "ECCENTRICITY": 0.0001419, "INCLINATION": 97.9225, "RA_OF_ASC_NODE": 79.7424, "ARG_OF_PERICENTER": 101.2045, "MEAN_ANOMALY": 258.9326, "EPHEMERIS_TYPE": 0, "CLASSIFICATION_TYPE": "U", "NORAD_CAT_ID": 60182, "ELEMENT_SET_NO": 999, "REV_AT_EPOCH": 7803, "BSTAR": 0.00039567, "MEAN_MOTION_DOT": 2.905e-05, "MEAN_MOTION_DDOT": 0}, "tle": {"line1": "1 60182U 24123A   25344.86865200  .00002905  00000+0  39567-3 0  9990", "line2": "2 60182  97.9225  79.7424 0001419 101.2045 258.9326 14.79478132 78033"}}, "geometry": {"type": "Point", "coordinates": [-91.93424022794218, 26.390748374384362]}}, {"type": "Feature", "properties": {"norad_id": 60452, "name": "LEGION 3", "group": "resource", "lat": -0.45666685327333434, "lon": 116.89797266873823, "alt_km": 509.8009073143521, "timestamp": "2025-12-15T07:02:37.272415+00:00", "meta": {"OBJECT_NAME": "LEGION 3", "OBJECT_ID": "2024-146A", "EPOCH": "2025-12-14T22:20:29.604480", "MEAN_MOTION": 15.15787804, "ECCENTRICITY": 0.00151061, "INCLINATION": 45.0018, "RA_OF_ASC_NODE": 298.3858, "ARG_OF_PERICENTER": 210.5285, "MEAN_ANOMALY": 149.4716, "EPHEMERIS_TYPE": 0, "CLASSIFICATION_TYPE": "U", "NORAD_CAT_ID": 60452, "ELEMENT_SET_NO": 999, "REV_AT_EPOCH": 7406, "BSTAR": 0.00024055094, "MEAN_MOTION_DOT": 4.419e-05, "MEAN_MOTION_DDOT": 0}, "tle": {"line1": "1 60452U 24146A   25348.93089820  .00004419  00000+0  24055-3 0  9991", "line2": "2 60452  45.0018 298.3858 0015106 210.5285 149.4716 15.15787804 74061"}}, "geometry": {"type": "Point", "coordinates": [116.89797266873823, -0.45666685327333434]}}]}